[{"OBJECT_NAME":"QIANFAN-35","OBJECT_ID":"2024-185S","EPOCH":"2026-03-04T02:52:10.499808","MEAN_MOTION":14.28115737,"ECCENTRICITY":0.0007629,"INCLINATION":88.9743,"RA_OF_ASC_NODE":67.3081,"ARG_OF_PERICENTER":36.0796,"MEAN_ANOMALY":324.0912,"EPHEMERIS_TYPE":0,"CLASSIFICATION_TYPE":"U","NORAD_CAT_ID":61568,"ELEMENT_SET_NO":999,"REV_AT_EPOCH":8179,"BSTAR":0.00045681,"MEAN_MOTION_DOT":1.15e-5,"MEAN_MOTION_DDOT":0},{"OBJECT_NAME":"QIANFAN-36","OBJECT_ID":"2024-185T","EPOCH":"2026-03-04T03:45:07.483104","MEAN_MOTION":13.55613425,"ECCENTRICITY":0.0006882,"INCLINATION":88.9716,"RA_OF_ASC_NODE":72.5478,"ARG_OF_PERICENTER":150.025,"MEAN_ANOMALY":210.1299,"EPHEMERIS_TYPE":0,"CLASSIFICATION_TYPE":"U","NORAD_CAT_ID":61569,"ELEMENT_SET_NO":999,"REV_AT_EPOCH":7895,"BSTAR":0.00018539,"MEAN_MOTION_DOT":1.41e-6,"MEAN_MOTION_DDOT":0},{"OBJECT_NAME":"QIANFAN-37","OBJECT_ID":"2024-232B","EPOCH":"2026-03-04T02:13:12.683424","MEAN_MOTION":13.51005084,"ECCENTRICITY":0.0001664,"INCLINATION":89.0049,"RA_OF_ASC_NODE":33.1112,"ARG_OF_PERICENTER":96.8099,"MEAN_ANOMALY":263.3242,"EPHEMERIS_TYPE":0,"CLASSIFICATION_TYPE":"U","NORAD_CAT_ID":62238,"ELEMENT_SET_NO":999,"REV_AT_EPOCH":11015,"BSTAR":0.00011021,"MEAN_MOTION_DOT":8.3e-7,"MEAN_MOTION_DDOT":0},{"OBJECT_NAME":"QIANFAN-38","OBJECT_ID":"2024-232C","EPOCH":"2026-03-04T02:48:41.347008","MEAN_MOTION":13.51003685,"ECCENTRICITY":0.0013551,"INCLINATION":89.0056,"RA_OF_ASC_NODE":33.0301,"ARG_OF_PERICENTER":327.9101,"MEAN_ANOMALY":32.1224,"EPHEMERIS_TYPE":0,"CLASSIFICATION_TYPE":"U","NORAD_CAT_ID":62239,"ELEMENT_SET_NO":999,"REV_AT_EPOCH":11021,"BSTAR":0.00010587,"MEAN_MOTION_DOT":8.0e-7,"MEAN_MOTION_DDOT":0},{"OBJECT_NAME":"QIANFAN-39","OBJECT_ID":"2024-232D","EPOCH":"2026-03-04T03:16:11.295840","MEAN_MOTION":14.25435083,"ECCENTRICITY":0.0016367,"INCLINATION":89.0054,"RA_OF_ASC_NODE":27.9965,"ARG_OF_PERICENTER":163.7203,"MEAN_ANOMALY":196.4519,"EPHEMERIS_TYPE":0,"CLASSIFICATION_TYPE":"U","NORAD_CAT_ID":62240,"ELEMENT_SET_NO":999,"REV_AT_EPOCH":11298,"BSTAR":0.00021111,"MEAN_MOTION_DOT":5.13e-6,"MEAN_MOTION_DDOT":0},{"OBJECT_NAME":"QIANFAN-40","OBJECT_ID":"2024-232E","EPOCH":"2026-03-04T03:36:05.171040","MEAN_MOTION":13.5100295,"ECCENTRICITY":0.0012881,"INCLINATION":89.0084,"RA_OF_ASC_NODE":32.6341,"ARG_OF_PERICENTER":336.859,"MEAN_ANOMALY":23.198,"EPHEMERIS_TYPE":0,"CLASSIFICATION_TYPE":"U","NORAD_CAT_ID":62241,"ELEMENT_SET_NO":999,"REV_AT_EPOCH":11058,"BSTAR":0.00013025,"MEAN_MOTION_DOT":9.6e-7,"MEAN_MOTION_DDOT":0},{"OBJECT_NAME":"QIANFAN-41","OBJECT_ID":"2024-232F","EPOCH":"2026-03-04T02:01:20.909856","MEAN_MOTION":13.5100458,"ECCENTRICITY":0.0012848,"INCLINATION":89.0053,"RA_OF_ASC_NODE":32.9835,"ARG_OF_PERICENTER":324.1269,"MEAN_ANOMALY":35.9019,"EPHEMERIS_TYPE":0,"CLASSIFICATION_TYPE":"U","NORAD_CAT_ID":62242,"ELEMENT_SET_NO":999,"REV_AT_EPOCH":11023,"BSTAR":0.00012616,"MEAN_MOTION_DOT":9.3e-7,"MEAN_MOTION_DDOT":0},{"OBJECT_NAME":"QIANFAN-42","OBJECT_ID":"2024-232G","EPOCH":"2026-03-04T02:46:45.079392","MEAN_MOTION":14.24529,"ECCENTRICITY":0.0014994,"INCLINATION":89.0052,"RA_OF_ASC_NODE":28.0582,"ARG_OF_PERICENTER":169.2597,"MEAN_ANOMALY":190.8918,"EPHEMERIS_TYPE":0,"CLASSIFICATION_TYPE":"U","NORAD_CAT_ID":62243,"ELEMENT_SET_NO":999,"REV_AT_EPOCH":11295,"BSTAR":0.0001986,"MEAN_MOTION_DOT":4.75e-6,"MEAN_MOTION_DDOT":0},{"OBJECT_NAME":"QIANFAN-43","OBJECT_ID":"2024-232H","EPOCH":"2026-03-04T03:42:00.860832","MEAN_MOTION":13.51004551,"ECCENTRICITY":0.0014524,"INCLINATION":89.0058,"RA_OF_ASC_NODE":33.0455,"ARG_OF_PERICENTER":328.6898,"MEAN_ANOMALY":31.3387,"EPHEMERIS_TYPE":0,"CLASSIFICATION_TYPE":"U","NORAD_CAT_ID":62244,"ELEMENT_SET_NO":999,"REV_AT_EPOCH":7885,"BSTAR":9.0909e-5,"MEAN_MOTION_DOT":7.1e-7,"MEAN_MOTION_DDOT":0},{"OBJECT_NAME":"QIANFAN-44","OBJECT_ID":"2024-232J","EPOCH":"2026-03-04T03:24:14.925024","MEAN_MOTION":13.51002516,"ECCENTRICITY":0.0012665,"INCLINATION":89.0057,"RA_OF_ASC_NODE":32.8561,"ARG_OF_PERICENTER":326.5892,"MEAN_ANOMALY":33.4459,"EPHEMERIS_TYPE":0,"CLASSIFICATION_TYPE":"U","NORAD_CAT_ID":62245,"ELEMENT_SET_NO":999,"REV_AT_EPOCH":11032,"BSTAR":8.071e-5,"MEAN_MOTION_DOT":6.4e-7,"MEAN_MOTION_DDOT":0},{"OBJECT_NAME":"QIANFAN-45","OBJECT_ID":"2024-232K","EPOCH":"2026-03-04T02:36:53.118432","MEAN_MOTION":13.51000218,"ECCENTRICITY":0.0013312,"INCLINATION":89.006,"RA_OF_ASC_NODE":33.0087,"ARG_OF_PERICENTER":325.8696,"MEAN_ANOMALY":34.1598,"EPHEMERIS_TYPE":0,"CLASSIFICATION_TYPE":"U","NORAD_CAT_ID":62246,"ELEMENT_SET_NO":999,"REV_AT_EPOCH":11024,"BSTAR":9.0989e-5,"MEAN_MOTION_DOT":7.1e-7,"MEAN_MOTION_DDOT":0},{"OBJECT_NAME":"QIANFAN-46","OBJECT_ID":"2024-232L","EPOCH":"2026-03-04T03:12:22.766112","MEAN_MOTION":13.51003122,"ECCENTRICITY":0.001354,"INCLINATION":89.0056,"RA_OF_ASC_NODE":33.0719,"ARG_OF_PERICENTER":331.6558,"MEAN_ANOMALY":28.3855,"EPHEMERIS_TYPE":0,"CLASSIFICATION_TYPE":"U","NORAD_CAT_ID":62247,"ELEMENT_SET_NO":999,"REV_AT_EPOCH":11020,"BSTAR":0.00010227,"MEAN_MOTION_DOT":7.8e-7,"MEAN_MOTION_DDOT":0},{"OBJECT_NAME":"QIANFAN-47","OBJECT_ID":"2024-232M","EPOCH":"2026-03-04T03:18:18.011808","MEAN_MOTION":13.51003002,"ECCENTRICITY":0.0013943,"INCLINATION":89.0052,"RA_OF_ASC_NODE":33.0012,"ARG_OF_PERICENTER":330.5028,"MEAN_ANOMALY":29.5335,"EPHEMERIS_TYPE":0,"CLASSIFICATION_TYPE":"U","NORAD_CAT_ID":62248,"ELEMENT_SET_NO":999,"REV_AT_EPOCH":11023,"BSTAR":7.7453e-5,"MEAN_MOTION_DOT":6.2e-7,"MEAN_MOTION_DDOT":0},{"OBJECT_NAME":"QIANFAN-48","OBJECT_ID":"2024-232N","EPOCH":"2026-03-04T02:24:59.233248","MEAN_MOTION":13.51003185,"ECCENTRICITY":0.0016281,"INCLINATION":89.0056,"RA_OF_ASC_NODE":33.01,"ARG_OF_PERICENTER":332.3109,"MEAN_ANOMALY":27.7174,"EPHEMERIS_TYPE":0,"CLASSIFICATION_TYPE":"U","NORAD_CAT_ID":62249,"ELEMENT_SET_NO":999,"REV_AT_EPOCH":11023,"BSTAR":8.756e-5,"MEAN_MOTION_DOT":6.8e-7,"MEAN_MOTION_DDOT":0},{"OBJECT_NAME":"QIANFAN-49","OBJECT_ID":"2024-232P","EPOCH":"2026-03-04T02:07:12.944928","MEAN_MOTION":13.51002377,"ECCENTRICITY":0.0013188,"INCLINATION":89.0055,"RA_OF_ASC_NODE":33.0232,"ARG_OF_PERICENTER":328.027,"MEAN_ANOMALY":32.008,"EPHEMERIS_TYPE":0,"CLASSIFICATION_TYPE":"U","NORAD_CAT_ID":62250,"ELEMENT_SET_NO":999,"REV_AT_EPOCH":7882,"BSTAR":0.00013184,"MEAN_MOTION_DOT":9.7e-7,"MEAN_MOTION_DDOT":0},{"OBJECT_NAME":"QIANFAN-50","OBJECT_ID":"2024-232Q","EPOCH":"2026-03-04T02:42:44.997984","MEAN_MOTION":13.51003262,"ECCENTRICITY":0.0014878,"INCLINATION":89.006,"RA_OF_ASC_NODE":33.0332,"ARG_OF_PERICENTER":328.5404,"MEAN_ANOMALY":31.4856,"EPHEMERIS_TYPE":0,"CLASSIFICATION_TYPE":"U","NORAD_CAT_ID":62251,"ELEMENT_SET_NO":999,"REV_AT_EPOCH":7885,"BSTAR":8.753e-5,"MEAN_MOTION_DOT":6.8e-7,"MEAN_MOTION_DDOT":0},{"OBJECT_NAME":"QIANFAN-51","OBJECT_ID":"2024-232R","EPOCH":"2026-03-04T02:19:05.827008","MEAN_MOTION":13.51004073,"ECCENTRICITY":0.0012518,"INCLINATION":89.0054,"RA_OF_ASC_NODE":33.0237,"ARG_OF_PERICENTER":333.9019,"MEAN_ANOMALY":26.15,"EPHEMERIS_TYPE":0,"CLASSIFICATION_TYPE":"U","NORAD_CAT_ID":62252,"ELEMENT_SET_NO":999,"REV_AT_EPOCH":7884,"BSTAR":0.00010645,"MEAN_MOTION_DOT":8.1e-7,"MEAN_MOTION_DDOT":0}]
