QIANFAN-35              
1 61568U 24185S   26063.11956597  .00001150  00000+0  45681-3 0  9999
2 61568  88.9743  67.3081 0007629  36.0796 324.0912 14.28115737 81792
QIANFAN-36              
1 61569U 24185T   26063.15633661  .00000141  00000+0  18539-3 0  9999
2 61569  88.9716  72.5478 0006882 150.0250 210.1299 13.55613425 78956
QIANFAN-37              
1 62238U 24232B   26063.09250791  .00000083  00000+0  11021-3 0  9992
2 62238  89.0049  33.1112 0001664  96.8099 263.3242 13.51005084110159
QIANFAN-38              
1 62239U 24232C   26063.11714522  .00000080  00000+0  10587-3 0  9996
2 62239  89.0056  33.0301 0013551 327.9101  32.1224 13.51003685110211
QIANFAN-39              
1 62240U 24232D   26063.13624185  .00000513  00000+0  21111-3 0  9991
2 62240  89.0054  27.9965 0016367 163.7203 196.4519 14.25435083112986
QIANFAN-40              
1 62241U 24232E   26063.15005985  .00000096  00000+0  13025-3 0  9996
2 62241  89.0084  32.6341 0012881 336.8590  23.1980 13.51002950110583
QIANFAN-41              
1 62242U 24232F   26063.08426979  .00000093  00000+0  12616-3 0  9991
2 62242  89.0053  32.9835 0012848 324.1269  35.9019 13.51004580110234
QIANFAN-42              
1 62243U 24232G   26063.11579953  .00000475  00000+0  19860-3 0  9999
2 62243  89.0052  28.0582 0014994 169.2597 190.8918 14.24529000112955
QIANFAN-43              
1 62244U 24232H   26063.15417663  .00000071  00000+0  90909-4 0  9999
2 62244  89.0058  33.0455 0014524 328.6898  31.3387 13.51004551 78858
QIANFAN-44              
1 62245U 24232J   26063.14183941  .00000064  00000+0  80710-4 0  9999
2 62245  89.0057  32.8561 0012665 326.5892  33.4459 13.51002516110329
QIANFAN-45              
1 62246U 24232K   26063.10894813  .00000071  00000+0  90989-4 0  9990
2 62246  89.0060  33.0087 0013312 325.8696  34.1598 13.51000218110244
QIANFAN-46              
1 62247U 24232L   26063.13359683  .00000078  00000+0  10227-3 0  9998
2 62247  89.0056  33.0719 0013540 331.6558  28.3855 13.51003122110201
QIANFAN-47              
1 62248U 24232M   26063.13770847  .00000062  00000+0  77453-4 0  9996
2 62248  89.0052  33.0012 0013943 330.5028  29.5335 13.51003002110237
QIANFAN-48              
1 62249U 24232N   26063.10068557  .00000068  00000+0  87560-4 0  9998
2 62249  89.0056  33.0100 0016281 332.3109  27.7174 13.51003185110231
QIANFAN-49              
1 62250U 24232P   26063.08834427  .00000097  00000+0  13184-3 0  9996
2 62250  89.0055  33.0232 0013188 328.0270  32.0080 13.51002377 78827
QIANFAN-50              
1 62251U 24232Q   26063.11302081  .00000068  00000+0  87530-4 0  9992
2 62251  89.0060  33.0332 0014878 328.5404  31.4856 13.51003262 78857
QIANFAN-51              
1 62252U 24232R   26063.09659522  .00000081  00000+0  10645-3 0  9992
2 62252  89.0054  33.0237 0012518 333.9019  26.1500 13.51004073 78843
